[{"OBJECT_NAME":"STARLINK-5228","OBJECT_ID":"2022-141Z","EPOCH":"2026-03-09T22:00:01.999584","MEAN_MOTION":15.24334038,"ECCENTRICITY":0.00015239,"INCLINATION":53.2168,"RA_OF_ASC_NODE":2.2067,"ARG_OF_PERICENTER":88.3857,"MEAN_ANOMALY":310.0088,"EPHEMERIS_TYPE":0,"CLASSIFICATION_TYPE":"U","NORAD_CAT_ID":54180,"ELEMENT_SET_NO":999,"REV_AT_EPOCH":574,"BSTAR":0.0018120877,"MEAN_MOTION_DOT":0.0004484,"MEAN_MOTION_DDOT":0},{"OBJECT_NAME":"FENGYUN 1C DEB","OBJECT_ID":"1999-025FAR","EPOCH":"2026-03-08T03:43:29.800128","MEAN_MOTION":14.889233,"ECCENTRICITY":0.01703105,"INCLINATION":98.6941,"RA_OF_ASC_NODE":137.2071,"ARG_OF_PERICENTER":197.5148,"MEAN_ANOMALY":162.0149,"EPHEMERIS_TYPE":0,"CLASSIFICATION_TYPE":"U","NORAD_CAT_ID":47015,"ELEMENT_SET_NO":999,"REV_AT_EPOCH":65652,"BSTAR":0.0011723418,"MEAN_MOTION_DOT":0.00014397,"MEAN_MOTION_DDOT":0}]
